ISS (ZARYA)             
1 25544U 98067A   26070.83651153  .00008338  00000+0  16153-3 0  9997
2 25544  51.6324  61.7417 0007973 182.2925 177.8028 15.48586968556665
POISK                   
1 36086U 09060A   26070.83651153  .00008338  00000+0  16153-3 0  9995
2 36086  51.6324  61.7417 0007973 182.2925 177.8028 15.48586968556400
CSS (TIANHE)            
1 48274U 21035A   26070.76324017  .00028963  00000+0  34031-3 0  9992
2 48274  41.4661 195.5440 0006800 284.6024  75.4061 15.60782980277934
ISS (NAUKA)             
1 49044U 21066A   26070.83651153  .00008338  00000+0  16153-3 0  9993
2 49044  51.6324  61.7417 0007973 182.2925 177.8028 15.48586968556442
FREGAT DEB              
1 49271U 11037PF  26070.77904029  .00020146  00000+0  28816-1 0  9996
2 49271  51.6527 294.4861 0961251  64.2314 305.4537 12.40266234212955
CSS (WENTIAN)           
1 53239U 22085A   26070.76324017  .00028963  00000+0  34031-3 0  9995
2 53239  41.4661 195.5440 0006800 284.6024  75.4061 15.60782980277740
CSS (MENGTIAN)          
1 54216U 22143A   26070.76324017  .00028963  00000+0  34031-3 0  9996
2 54216  41.4661 195.5440 0006800 284.6024  75.4061 15.60782980277713
PROGRESS-MS 31          
1 64751U 25146A   26070.83651153  .00008338  00000+0  16153-3 0  9998
2 64751  51.6324  61.7417 0007973 182.2925 177.8028 15.48586968556488
TIANZHOU-9              
1 64786U 25149A   26070.76324017  .00028963  00000+0  34031-3 0  9998
2 64786  41.4661 195.5440 0006800 284.6024  75.4061 15.60782980277727
PROGRESS-MS 32          
1 65586U 25204A   26070.44931709  .00009201  00000+0  17741-3 0  9999
2 65586  51.6324  63.6561 0007999 180.7735 179.3242 15.48580657556547
CYGNUS NG-23            
1 65616U 25208A   26070.44931709  .00009201  00000+0  17741-3 0  9997
2 65616  51.6324  63.6561 0007999 180.7735 179.3242 15.48580657556585
YOTSUBA-KULOVER         
1 65941U 98067XN  26070.15958449  .00251035  00000+0  12153-2 0  9994
2 65941  51.6213  49.6653 0005363  77.4147 282.7454 15.81236605 23739
