CCSDS_OMM_VERS = 2.0
CREATION_DATE  = 
ORIGINATOR     = 

OBJECT_NAME    = ISS (ZARYA)
OBJECT_ID      = 1998-067A
CENTER_NAME    = EARTH
REF_FRAME      = TEME
TIME_SYSTEM    = UTC
MEAN_ELEMENT_THEORY = SGP/SGP4

EPOCH          = 2026-03-11T20:04:34.596192
MEAN_MOTION    = 15.48586968
ECCENTRICITY   = .0007973
INCLINATION    = 51.6324
RA_OF_ASC_NODE = 61.7417
ARG_OF_PERICENTER = 182.2925
MEAN_ANOMALY   = 177.8028

EPHEMERIS_TYPE = 0
CLASSIFICATION_TYPE = U
NORAD_CAT_ID   = 25544
ELEMENT_SET_NO = 999
REV_AT_EPOCH   = 55666
BSTAR          = .16153E-3
MEAN_MOTION_DOT = .8338E-4
MEAN_MOTION_DDOT = 0

CCSDS_OMM_VERS = 2.0
CREATION_DATE  = 
ORIGINATOR     = 

OBJECT_NAME    = POISK
OBJECT_ID      = 2009-060A
CENTER_NAME    = EARTH
REF_FRAME      = TEME
TIME_SYSTEM    = UTC
MEAN_ELEMENT_THEORY = SGP/SGP4

EPOCH          = 2026-03-11T20:04:34.596192
MEAN_MOTION    = 15.48586968
ECCENTRICITY   = .0007973
INCLINATION    = 51.6324
RA_OF_ASC_NODE = 61.7417
ARG_OF_PERICENTER = 182.2925
MEAN_ANOMALY   = 177.8028

EPHEMERIS_TYPE = 0
CLASSIFICATION_TYPE = U
NORAD_CAT_ID   = 36086
ELEMENT_SET_NO = 999
REV_AT_EPOCH   = 55640
BSTAR          = .16153E-3
MEAN_MOTION_DOT = .8338E-4
MEAN_MOTION_DDOT = 0

CCSDS_OMM_VERS = 2.0
CREATION_DATE  = 
ORIGINATOR     = 

OBJECT_NAME    = CSS (TIANHE)
OBJECT_ID      = 2021-035A
CENTER_NAME    = EARTH
REF_FRAME      = TEME
TIME_SYSTEM    = UTC
MEAN_ELEMENT_THEORY = SGP/SGP4

EPOCH          = 2026-03-11T18:19:03.950688
MEAN_MOTION    = 15.60782980
ECCENTRICITY   = .00068
INCLINATION    = 41.4661
RA_OF_ASC_NODE = 195.5440
ARG_OF_PERICENTER = 284.6024
MEAN_ANOMALY   = 75.4061

EPHEMERIS_TYPE = 0
CLASSIFICATION_TYPE = U
NORAD_CAT_ID   = 48274
ELEMENT_SET_NO = 999
REV_AT_EPOCH   = 27793
BSTAR          = .34031E-3
MEAN_MOTION_DOT = .28963E-3
MEAN_MOTION_DDOT = 0

CCSDS_OMM_VERS = 2.0
CREATION_DATE  = 
ORIGINATOR     = 

OBJECT_NAME    = ISS (NAUKA)
OBJECT_ID      = 2021-066A
CENTER_NAME    = EARTH
REF_FRAME      = TEME
TIME_SYSTEM    = UTC
MEAN_ELEMENT_THEORY = SGP/SGP4

EPOCH          = 2026-03-11T20:04:34.596192
MEAN_MOTION    = 15.48586968
ECCENTRICITY   = .0007973
INCLINATION    = 51.6324
RA_OF_ASC_NODE = 61.7417
ARG_OF_PERICENTER = 182.2925
MEAN_ANOMALY   = 177.8028

EPHEMERIS_TYPE = 0
CLASSIFICATION_TYPE = U
NORAD_CAT_ID   = 49044
ELEMENT_SET_NO = 999
REV_AT_EPOCH   = 55644
BSTAR          = .16153E-3
MEAN_MOTION_DOT = .8338E-4
MEAN_MOTION_DDOT = 0

CCSDS_OMM_VERS = 2.0
CREATION_DATE  = 
ORIGINATOR     = 

OBJECT_NAME    = FREGAT DEB
OBJECT_ID      = 2011-037PF
CENTER_NAME    = EARTH
REF_FRAME      = TEME
TIME_SYSTEM    = UTC
MEAN_ELEMENT_THEORY = SGP/SGP4

EPOCH          = 2026-03-11T18:41:49.081056
MEAN_MOTION    = 12.40266234
ECCENTRICITY   = .0961251
INCLINATION    = 51.6527
RA_OF_ASC_NODE = 294.4861
ARG_OF_PERICENTER = 64.2314
MEAN_ANOMALY   = 305.4537

EPHEMERIS_TYPE = 0
CLASSIFICATION_TYPE = U
NORAD_CAT_ID   = 49271
ELEMENT_SET_NO = 999
REV_AT_EPOCH   = 21295
BSTAR          = .28816E-1
MEAN_MOTION_DOT = .20146E-3
MEAN_MOTION_DDOT = 0

CCSDS_OMM_VERS = 2.0
CREATION_DATE  = 
ORIGINATOR     = 

OBJECT_NAME    = CSS (WENTIAN)
OBJECT_ID      = 2022-085A
CENTER_NAME    = EARTH
REF_FRAME      = TEME
TIME_SYSTEM    = UTC
MEAN_ELEMENT_THEORY = SGP/SGP4

EPOCH          = 2026-03-11T18:19:03.950688
MEAN_MOTION    = 15.60782980
ECCENTRICITY   = .00068
INCLINATION    = 41.4661
RA_OF_ASC_NODE = 195.5440
ARG_OF_PERICENTER = 284.6024
MEAN_ANOMALY   = 75.4061

EPHEMERIS_TYPE = 0
CLASSIFICATION_TYPE = U
NORAD_CAT_ID   = 53239
ELEMENT_SET_NO = 999
REV_AT_EPOCH   = 27774
BSTAR          = .34031E-3
MEAN_MOTION_DOT = .28963E-3
MEAN_MOTION_DDOT = 0

CCSDS_OMM_VERS = 2.0
CREATION_DATE  = 
ORIGINATOR     = 

OBJECT_NAME    = CSS (MENGTIAN)
OBJECT_ID      = 2022-143A
CENTER_NAME    = EARTH
REF_FRAME      = TEME
TIME_SYSTEM    = UTC
MEAN_ELEMENT_THEORY = SGP/SGP4

EPOCH          = 2026-03-11T18:19:03.950688
MEAN_MOTION    = 15.60782980
ECCENTRICITY   = .00068
INCLINATION    = 41.4661
RA_OF_ASC_NODE = 195.5440
ARG_OF_PERICENTER = 284.6024
MEAN_ANOMALY   = 75.4061

EPHEMERIS_TYPE = 0
CLASSIFICATION_TYPE = U
NORAD_CAT_ID   = 54216
ELEMENT_SET_NO = 999
REV_AT_EPOCH   = 27771
BSTAR          = .34031E-3
MEAN_MOTION_DOT = .28963E-3
MEAN_MOTION_DDOT = 0

CCSDS_OMM_VERS = 2.0
CREATION_DATE  = 
ORIGINATOR     = 

OBJECT_NAME    = PROGRESS-MS 31
OBJECT_ID      = 2025-146A
CENTER_NAME    = EARTH
REF_FRAME      = TEME
TIME_SYSTEM    = UTC
MEAN_ELEMENT_THEORY = SGP/SGP4

EPOCH          = 2026-03-11T20:04:34.596192
MEAN_MOTION    = 15.48586968
ECCENTRICITY   = .0007973
INCLINATION    = 51.6324
RA_OF_ASC_NODE = 61.7417
ARG_OF_PERICENTER = 182.2925
MEAN_ANOMALY   = 177.8028

EPHEMERIS_TYPE = 0
CLASSIFICATION_TYPE = U
NORAD_CAT_ID   = 64751
ELEMENT_SET_NO = 999
REV_AT_EPOCH   = 55648
BSTAR          = .16153E-3
MEAN_MOTION_DOT = .8338E-4
MEAN_MOTION_DDOT = 0

CCSDS_OMM_VERS = 2.0
CREATION_DATE  = 
ORIGINATOR     = 

OBJECT_NAME    = TIANZHOU-9
OBJECT_ID      = 2025-149A
CENTER_NAME    = EARTH
REF_FRAME      = TEME
TIME_SYSTEM    = UTC
MEAN_ELEMENT_THEORY = SGP/SGP4

EPOCH          = 2026-03-11T18:19:03.950688
MEAN_MOTION    = 15.60782980
ECCENTRICITY   = .00068
INCLINATION    = 41.4661
RA_OF_ASC_NODE = 195.5440
ARG_OF_PERICENTER = 284.6024
MEAN_ANOMALY   = 75.4061

EPHEMERIS_TYPE = 0
CLASSIFICATION_TYPE = U
NORAD_CAT_ID   = 64786
ELEMENT_SET_NO = 999
REV_AT_EPOCH   = 27772
BSTAR          = .34031E-3
MEAN_MOTION_DOT = .28963E-3
MEAN_MOTION_DDOT = 0

CCSDS_OMM_VERS = 2.0
CREATION_DATE  = 
ORIGINATOR     = 

OBJECT_NAME    = PROGRESS-MS 32
OBJECT_ID      = 2025-204A
CENTER_NAME    = EARTH
REF_FRAME      = TEME
TIME_SYSTEM    = UTC
MEAN_ELEMENT_THEORY = SGP/SGP4

EPOCH          = 2026-03-11T10:47:00.996576
MEAN_MOTION    = 15.48580657
ECCENTRICITY   = .0007999
INCLINATION    = 51.6324
RA_OF_ASC_NODE = 63.6561
ARG_OF_PERICENTER = 180.7735
MEAN_ANOMALY   = 179.3242

EPHEMERIS_TYPE = 0
CLASSIFICATION_TYPE = U
NORAD_CAT_ID   = 65586
ELEMENT_SET_NO = 999
REV_AT_EPOCH   = 55654
BSTAR          = .17741E-3
MEAN_MOTION_DOT = .9201E-4
MEAN_MOTION_DDOT = 0

CCSDS_OMM_VERS = 2.0
CREATION_DATE  = 
ORIGINATOR     = 

OBJECT_NAME    = CYGNUS NG-23
OBJECT_ID      = 2025-208A
CENTER_NAME    = EARTH
REF_FRAME      = TEME
TIME_SYSTEM    = UTC
MEAN_ELEMENT_THEORY = SGP/SGP4

EPOCH          = 2026-03-11T10:47:00.996576
MEAN_MOTION    = 15.48580657
ECCENTRICITY   = .0007999
INCLINATION    = 51.6324
RA_OF_ASC_NODE = 63.6561
ARG_OF_PERICENTER = 180.7735
MEAN_ANOMALY   = 179.3242

EPHEMERIS_TYPE = 0
CLASSIFICATION_TYPE = U
NORAD_CAT_ID   = 65616
ELEMENT_SET_NO = 999
REV_AT_EPOCH   = 55658
BSTAR          = .17741E-3
MEAN_MOTION_DOT = .9201E-4
MEAN_MOTION_DDOT = 0

CCSDS_OMM_VERS = 2.0
CREATION_DATE  = 
ORIGINATOR     = 

OBJECT_NAME    = YOTSUBA-KULOVER
OBJECT_ID      = 1998-067XN
CENTER_NAME    = EARTH
REF_FRAME      = TEME
TIME_SYSTEM    = UTC
MEAN_ELEMENT_THEORY = SGP/SGP4

EPOCH          = 2026-03-11T03:49:48.099936
MEAN_MOTION    = 15.81236605
ECCENTRICITY   = .00053633
INCLINATION    = 51.6213
RA_OF_ASC_NODE = 49.6653
ARG_OF_PERICENTER = 77.4147
MEAN_ANOMALY   = 282.7454

EPHEMERIS_TYPE = 0
CLASSIFICATION_TYPE = U
NORAD_CAT_ID   = 65941
ELEMENT_SET_NO = 999
REV_AT_EPOCH   = 2373
BSTAR          = .12152531E-2
MEAN_MOTION_DOT = .251035E-2
MEAN_MOTION_DDOT = 0

